ONEWEB-0534             
1 55797U 23029B   24009.23855641  .00000099  00000+0  21058-3 0  9994
2 55797  87.9193  91.6324 0001763 112.9911 247.1409 13.20771245 43677
ONEWEB-0556             
1 55798U 23029C   24009.24486633  .00000153  00000+0  34519-3 0  9994
2 55798  87.9194  91.6250 0001243 137.1386 222.9845 13.20771810 43678
ONEWEB-0562             
1 55799U 23029D   24009.61102397  .00000009  00000+0 -10331-4 0  9996
2 55799  87.9196  91.5413 0000626 112.4767 247.6432 13.20770139 43729
ONEWEB-0563             
1 55800U 23029E   24009.60471294  .00000034  00000+0  52744-4 0  9994
2 55800  87.9195  91.5579 0001558 115.6683 244.4612 13.20770134 43710
ONEWEB-0564             
1 55801U 23029F   24009.74991506 -.00000038  00000+0 -12627-3 0  9994
2 55801  87.9197  91.5123 0001418  94.2061 265.9234 13.20770233 44455
ONEWEB-0638             
1 55802U 23029G   24009.27168718  .00000144  00000+0  35369-3 0  9998
2 55802  87.8988 106.8939 0001704 131.8341 228.2934 13.14502054 42482
ONEWEB-0639             
1 55803U 23029H   24009.39765577  .00000041  00000+0  71001-4 0  9998
2 55803  87.9211 122.0909 0003106 122.1178 238.0256 13.19725181 41544
ONEWEB-0640             
1 55804U 23029J   24009.28120000 -.00000024  00000+0 -98935-4 0  9991
2 55804  87.8986 106.8915 0001968 136.5224 223.6061 13.14501593 42500
